NORAD_CAT_ID,OBJECT_NAME,OBJECT_TYPE,EPOCH,MEAN_MOTION,ECCENTRICITY,INCLINATION,RA_OF_ASC_NODE,ARG_OF_PERICENTER,MEAN_ANOMALY,BSTAR,MEAN_MOTION_DOT,MEAN_MOTION_DDOT,TLE_LINE0,TLE_LINE1,TLE_LINE2,SEMIMAJOR_AXIS,PERIOD,APOGEE,PERIGEE,DECAYED
52280.0,STARLINK-3764,PAYLOAD,2022-09-27 11:58:50,15.08832246,0.0001913,53.219,1.8587,44.9009,315.2138,8.3001e-05,1.033e-05,0.0,0 STARLINK-3764,1 52280U 22041V   22270.49919506  .00001033  00000-0  83001-4 0  9995,2 52280  53.2190   1.8587 0001913  44.9009 315.2138 15.08832246 25490,6917.904,95.438,541.092,538.446,0.0
52280.0,STARLINK-3764,PAYLOAD,2022-09-27 18:20:22,15.08834011,0.0001933,53.2188,0.6697,45.6196,314.4954,0.00013113,1.799e-05,0.0,0 STARLINK-3764,1 52280U 22041V   22270.76415426  .00001799  00000-0  13113-3 0  9992,2 52280  53.2188   0.6697 0001933  45.6196 314.4954 15.08834011 24312,6917.899,95.438,541.101,538.4259999999998,0.0
52280.0,STARLINK-3764,PAYLOAD,2022-09-28 11:49:36,15.08921688,0.0001131,53.2176,357.3991,50.3343,309.7749,-0.0008745,-0.0001421,0.0,0 STARLINK-3764,1 52280U 22041V   22271.49278636 -.00014210  00000-0 -87450-3 0  9992,2 52280  53.2176 357.3991 0001131  50.3343 309.7749 15.08921688 25648,6917.630999999999,95.432,540.278,538.7130000000002,0.0
52280.0,STARLINK-3764,PAYLOAD,2022-09-28 18:11:10,15.08834065,0.0002283,53.2199,356.2112,38.1029,322.0124,0.00011375,1.522e-05,0.0,0 STARLINK-3764,1 52280U 22041V   22271.75775996  .00001522  00000-0  11375-3 0  9995,2 52280  53.2199 356.2112 0002283  38.1029 322.0124 15.08834065 25681,6917.899,95.438,541.3430000000002,538.184,0.0
52280.0,STARLINK-3764,PAYLOAD,2022-09-29 11:40:25,15.08835328,0.0001911,53.2189,352.9374,48.928,311.1877,-3.0837e-05,-7.79e-06,0.0,0 STARLINK-3764,1 52280U 22041V   22272.48640520 -.00000779  00000-0 -30837-4 0  9990,2 52280  53.2189 352.9374 0001911  48.9280 311.1877 15.08835328 24572,6917.895,95.438,541.082,538.438,0.0
52280.0,STARLINK-3764,PAYLOAD,2022-09-29 22:48:07,15.08840782,0.0001933,53.2192,350.8556,50.4706,309.6457,1.2444e-06,-2.68e-06,0.0,0 STARLINK-3764,1 52280U 22041V   22272.95008127 -.00000268  00000-0  12444-5 0  9990,2 52280  53.2192 350.8556 0001933  50.4706 309.6457 15.08840782 25869,6917.878000000002,95.438,541.08,538.406,0.0
52280.0,STARLINK-3764,PAYLOAD,2022-09-30 11:31:10,15.08859713,0.0001784,53.2185,348.4728,49.6887,310.4261,0.00018508,2.660000000000001e-05,0.0,0 STARLINK-3764,1 52280U 22041V   22273.47997841  .00002660  00000-0  18508-3 0  9990,2 52280  53.2185 348.4728 0001784  49.6887 310.4261 15.08859713 25945,6917.82,95.436,540.919,538.451,0.0
52280.0,STARLINK-3764,PAYLOAD,2022-09-30 16:17:17,15.08878417,0.0001906,53.2193,347.5847,51.5875,308.5288,0.00033269,5.016e-05,0.0,0 STARLINK-3764,1 52280U 22041V   22273.67867985  .00005016  00000-0  33269-3 0  9996,2 52280  53.2193 347.5847 0001906  51.5875 308.5288 15.08878417 25973,6917.763000000001,95.435,540.946,538.309,0.0
52280.0,STARLINK-3764,PAYLOAD,2022-10-01 11:21:58,15.08836485,0.0002065,53.22,344.0163,34.9081,325.2046,1.9417e-05,2.1e-07,0.0,0 STARLINK-3764,1 52280U 22041V   22274.47359005  .00000021  00000-0  19417-4 0  9995,2 52280  53.2200 344.0163 0002065  34.9081 325.2046 15.08836485 24871,6917.891,95.438,541.185,538.328,0.0
52280.0,STARLINK-3764,PAYLOAD,2022-10-01 14:32:45,15.08824713,0.0002269,53.2201,343.4226,42.8006,317.3163,-7.609e-05,-1.499e-05,0.0,0 STARLINK-3764,1 52280U 22041V   22274.60608113 -.00001499  00000-0 -76090-4 0  9999,2 52280  53.2201 343.4226 0002269  42.8006 317.3163 15.08824713 26118,6917.927,95.439,541.362,538.222,0.0
52280.0,STARLINK-3764,PAYLOAD,2022-10-01 19:18:55,15.08823637,0.0001867,53.2198,342.5322,44.6695,315.4447,-0.00011746,-2.156e-05,0.0,0 STARLINK-3764,1 52280U 22041V   22274.80480328 -.00002156  00000-0 -11746-3 0  9994,2 52280  53.2198 342.5322 0001867  44.6695 315.4447 15.08823637 24922,6917.93,95.439,541.087,538.504,0.0
52280.0,STARLINK-3764,PAYLOAD,2022-10-02 11:12:45,15.08840292,0.0001919,53.2186,339.5561,49.8731,310.2429,-0.00017601,-3.088e-05,0.0,0 STARLINK-3764,1 52280U 22041V   22275.46719464 -.00003088  00000-0 -17601-3 0  9994,2 52280  53.2186 339.5561 0001919  49.8731 310.2429 15.08840292 26242,6917.879,95.438,541.072,538.4169999999998,0.0
52280.0,STARLINK-3764,PAYLOAD,2022-10-02 14:23:31,15.088449800000005,0.0001868,53.2186,338.9616,50.0594,310.0562,-0.00028499,-4.822e-05,0.0,0 STARLINK-3764,1 52280U 22041V   22275.59967524 -.00004822  00000-0 -28499-3 0  9994,2 52280  53.2186 338.9616 0001868  50.0594 310.0562 15.08844980 25041,6917.865,95.437,541.0219999999998,538.438,0.0
52280.0,STARLINK-3764,PAYLOAD,2022-10-03 03:06:36,15.08854081,0.0002802,53.2181,336.5827,49.462,310.6615,-0.00024963,-4.261e-05,0.0,0 STARLINK-3764,1 52280U 22041V   22276.12958817 -.00004261  00000-0 -24963-3 0  9998,2 52280  53.2181 336.5827 0002802  49.4620 310.6615 15.08854081 26347,6917.837,95.437,541.641,537.764,0.0
52280.0,STARLINK-3764,PAYLOAD,2022-10-03 12:38:54,15.088513699999998,0.000177,53.2183,334.7988,51.8462,308.269,0.00026874,3.993e-05,0.0,0 STARLINK-3764,1 52280U 22041V   22276.52701822  .00003993  00000-0  26874-3 0  9996,2 52280  53.2183 334.7988 0001770  51.8462 308.2690 15.08851370 26402,6917.846,95.437,540.935,538.486,0.0
52280.0,STARLINK-3764,PAYLOAD,2022-10-04 02:57:23,15.08845195,0.000184,53.2173,332.1219,48.7628,311.3523,0.00028312,4.221e-05,0.0,0 STARLINK-3764,1 52280U 22041V   22277.12318702  .00004221  00000-0  28312-3 0  9998,2 52280  53.2173 332.1219 0001840  48.7628 311.3523 15.08845195 26494,6917.865,95.437,541.002,538.457,0.0
52280.0,STARLINK-3764,PAYLOAD,2022-10-04 10:54:19,15.0884072,0.0001839,53.2185,330.6363,49.272,310.8431,9.3777e-05,1.205e-05,0.0,0 STARLINK-3764,1 52280U 22041V   22277.45438803  .00001205  00000-0  93777-4 0  9996,2 52280  53.2185 330.6363 0001839  49.2720 310.8431 15.08840720 26544,6917.878000000002,95.438,541.015,538.471,0.0
52280.0,STARLINK-3764,PAYLOAD,2022-10-04 20:26:38,15.0883414,0.0001858,53.2171,328.8509,45.1634,314.9508,1.4728e-05,-5.4e-07,0.0,0 STARLINK-3764,1 52280U 22041V   22277.85183172 -.00000054  00000-0  14728-4 0  9997,2 52280  53.2171 328.8509 0001858  45.1634 314.9508 15.08834140 26606,6917.898,95.438,541.049,538.4780000000002,0.0
52280.0,STARLINK-3764,PAYLOAD,2022-10-05 10:45:07,15.08836097,0.0002031,53.2191,326.1773,54.19300000000001,305.9251,-0.00014968,-2.669e-05,0.0,0 STARLINK-3764,1 52280U 22041V   22278.44800249 -.00002669  00000-0 -14968-3 0  9994,2 52280  53.2191 326.1773 0002031  54.1930 305.9251 15.08836097 26692,6917.892,95.438,541.1619999999998,538.352,0.0
52280.0,STARLINK-3764,PAYLOAD,2022-10-05 12:20:30,15.08836855,0.0001889999999999,53.2182,325.8783,50.4408,309.6751,-9.8243e-05,-1.851e-05,0.0,0 STARLINK-3764,1 52280U 22041V   22278.51424080 -.00001851  00000-0 -98243-4 0  9998,2 52280  53.2182 325.8783 0001890  50.4408 309.6751 15.08836855 25484,6917.89,95.438,541.062,538.448,0.0
52280.0,STARLINK-3764,PAYLOAD,2022-10-06 02:38:58,15.08843787,0.0001825,53.2185,323.2026,50.0803,310.0349,-0.00010179,-1.908e-05,0.0,0 STARLINK-3764,1 52280U 22041V   22279.11039857 -.00001908  00000-0 -10179-3 0  9993,2 52280  53.2185 323.2026 0001825  50.0803 310.0349 15.08843787 26798,6917.869000000002,95.437,540.996,538.471,0.0
52280.0,STARLINK-3764,PAYLOAD,2022-10-06 10:35:53,15.08845242,0.0001916,53.2183,321.7155,47.9004,312.215,-7.572e-05,-1.493e-05,0.0,0 STARLINK-3764,1 52280U 22041V   22279.44159721 -.00001493  00000-0 -75720-4 0  9995,2 52280  53.2183 321.7155 0001916  47.9004 312.2150 15.08845242 25624,6917.864000000001,95.437,541.055,538.404,0.0
52280.0,STARLINK-3764,PAYLOAD,2022-10-06 20:08:12,15.0884573,0.0001971,53.2179,319.9305,47.2861,312.8297,0.00016783,2.384e-05,0.0,0 STARLINK-3764,1 52280U 22041V   22279.83903141  .00002384  00000-0  16783-3 0  9992,2 52280  53.2179 319.9305 0001971  47.2861 312.8297 15.08845730 25686,6917.863,95.437,541.091,538.364,0.0
52280.0,STARLINK-3764,PAYLOAD,2022-10-07 08:51:17,15.08839214,0.0001892,53.2178,317.5514,49.0915,311.0241,0.0002141,3.121e-05,0.0,0 STARLINK-3764,1 52280U 22041V   22280.36895667  .00003121  00000-0  21410-3 0  9998,2 52280  53.2178 317.5514 0001892  49.0915 311.0241 15.08839214 25762,6917.8830000000025,95.438,541.057,538.439,0.0
52280.0,STARLINK-3764,PAYLOAD,2022-10-07 19:58:59,15.08842911,0.0001940999999999,53.2179,315.47,47.3582,312.7573,0.00010241,1.342e-05,0.0,0 STARLINK-3764,1 52280U 22041V   22280.83263715  .00001342  00000-0  10241-3 0  9996,2 52280  53.2179 315.4700 0001941  47.3582 312.7573 15.08842911 25835,6917.871,95.437,541.0790000000002,538.394,0.0
52280.0,STARLINK-3764,PAYLOAD,2022-10-08 08:42:05,15.08841067,0.0001911999999999,53.2188,313.0918,46.6712,313.444,7.8315e-05,9.58e-06,0.0,0 STARLINK-3764,1 52280U 22041V   22281.36255816  .00000958  00000-0  78315-4 0  9997,2 52280  53.2188 313.0918 0001912  46.6712 313.4440 15.08841067 25916,6917.877,95.437,541.065,538.419,0.0
52280.0,STARLINK-3764,PAYLOAD,2022-10-08 19:49:46,15.08851403,0.0001956999999999,53.2179,311.0103,46.5762,313.5393,6.2312e-05,7.04e-06,0.0,0 STARLINK-3764,1 52280U 22041V   22281.82623176  .00000704  00000-0  62312-4 0  9995,2 52280  53.2179 311.0103 0001957  46.5762 313.5393 15.08851403 27200,6917.846,95.437,541.064,538.357,0.0
52280.0,STARLINK-3764,PAYLOAD,2022-10-09 05:22:05,15.08843472,0.0001952,53.2182,309.2262,50.7475,309.369,2.7174e-05,1.44e-06,0.0,0 STARLINK-3764,1 52280U 22041V   22282.22367617  .00000144  00000-0  27174-4 0  9990,2 52280  53.2182 309.2262 0001952  50.7475 309.3690 15.08843472 27268,6917.87,95.437,541.085,538.384,0.0
52280.0,STARLINK-3764,PAYLOAD,2022-10-09 08:32:51,15.08844185,0.0001911999999999,53.2185,308.6317,52.5317,307.5849,4.3419e-05,4.03e-06,0.0,0 STARLINK-3764,1 52280U 22041V   22282.35615468  .00000403  00000-0  43419-4 0  9992,2 52280  53.2185 308.6317 0001912  52.5317 307.5849 15.08844185 26061,6917.868,95.437,541.055,538.41,0.0
